#dP2021  3 29  0  0  0.00000000      96 __u+U ITR00 FIT  IAC
## 2151  86400.00000000   900.00000000 59302 0.0000000000000
+  124   C01C02C03C04C06C07C08C09C10C11C12C13C14C16C19C20C21
+        C22C23C24C25C26C27C28C29C30C32C33C34C35C36C37C38C39
+        C40C41C42C43C44C45C46C59C60E01E02E03E04E05E07E08E09
+        E11E12E13E14E15E18E19E21E24E25E26E27E30E31E33E36G01
+        G02G03G04G05G06G07G08G09G10G11G12G13G14G15G16G17G18
+        G19G20G21G22G23G24G25G26G27G28G29G30G31G32J01J02J03
+        J07R01R02R03R04R05R07R08R09R11R12R13R14R15R16R17R18
+        R19R20R21R22R24  0  0  0  0  0  0  0  0  0  0  0  0
++        13 12 13 13 10 10 10  9  9  9  9  9  9  9  8  8  8
++         8  8  8  8  8  8  8  8  8  9  8  8  8  8  8 10  9
++         9  9  8  8  8  8  8 15 12  5  5  6  4  5  5  6  4
++         4  4  6  5  5  5  4  4  5  5  5  5  5  5  5  5  4
++         4  4  4  5  4  4  4  4  5  5  4  5  4  5  4  4  5
++         4  5  4  4  5  4  4  4  5  4  5  4  4  4  9  9  9
++         0  8  6  6  6  6  6  7  6  8  6  8  6  6  8  6  6
++         8  7  6  8  6  0  0  0  0  0  0  0  0  0  0  0  0
%c M  cc GPS ccc cccc cccc cccc cccc ccccc ccccc ccccc ccccc
%c cc cc ccc ccc cccc cccc cccc cccc ccccc ccccc ccccc ccccc
%f  0.0000000  0.000000000  0.00000000000  0.000000000000000
%f  0.0000000  0.000000000  0.00000000000  0.000000000000000
%i    0    0    0    0      0      0      0      0         0
%i    0    0    0    0      0      0      0      0         0
/* INFORMATION & ANALYSIS CENTER (IAC)            RAPID DATA
/* S/V CLOCKS ARE ALIGNED TO GNSS TIME                      
/* G:C1WC2W R:C1PC2P E:C1XC5X C:C2IC6I J:C1CC2S             
/* PCV:IGS14_2134 OL/AL:FES2004  NONE     YN ORB:CoN CLK:CoN
*  2021 03 29 12  0  0.00000000
PC01 -34304.878353  24492.870482    -57.397217   -610.708611
PC02   4353.164504  41937.266656    122.953330    802.587281
PC03 -14841.483063  39424.957353    878.584307   -448.905873
PC04 -39581.929838  14507.253936    684.046094    158.544616
PC06 -22360.879991  22564.499466 -27495.679373    224.168180
PC07 -17557.358481  37446.636322  -6378.312274    -65.882498
PC08  -5610.677112  24818.508155  33827.755877   -895.987618
PC09  -5738.193534  24457.023263 -33625.529782    634.246147
PC10  -7103.580323  40786.380252   6833.212537    -64.453521
PC11  24044.389872  -7389.856288 -12058.802627   -840.672328
PC12  27144.807272   3771.346592   5330.280611    901.767706
PC13   6281.666540  33167.943825  25525.401007    199.873977
PC14  18916.203335 -16983.166851 -11546.454386    331.318066
PC16 -17679.979404  23496.450599 -30176.664152   -757.086359
PC19 -15305.035452  23169.909792   2698.524753    779.182386
PC20 -19434.973315   9445.515786  17662.160485   -940.496518
PC21  12132.133088  10583.922790 -22768.575902   -911.291999
PC22  -2168.934062  23830.393582 -14325.311160   -938.136919
PC23  -7413.374607 -25472.335212   8650.140909   -881.505604
PC24  18475.721942   2399.710880  20771.221125   -796.888259
PC25   6964.398456 -17193.725918  20833.890955   -940.919531
PC26  18825.745860  18446.657621   9213.479609    928.606402
PC27 -22402.372162  -9682.860092 -13571.211882    506.586838
PC28  -3976.532443 -15723.937014 -22706.599928    -92.681826
PC29 -16222.906270  13178.359095  18487.468344    371.531088
PC30 -27621.967546   2736.863697   3014.781170    456.125580
PC32 -12222.593868 -10540.131890  22785.990786   -924.702682
PC33  15198.312167 -23257.908219  -2709.804396   -943.617174
PC34  27464.240922  -3143.242230  -3712.997808   -708.073463
PC35   4110.595959  15681.233027  22706.022785   -352.179624
PC36  -7604.550538  16764.676754 -20954.397967   -736.402236
PC37 -18118.173386 -19449.719835  -8450.367917   -884.971092
PC38  -3982.516844  28330.400219  31044.079272    138.859345
PC39 -14655.047070  24817.580350 -30813.850451 999999.999999
PC40 -13267.441032  39458.336877   6237.644496    145.798152
PC41   2260.929197 -23973.630201  14152.111835   -936.600432
PC42  19388.523122  -8813.432439 -17992.330619   -932.910134
PC43  16707.977430 -13017.514715 -18161.713562   -661.277350
PC44  22540.201703   9103.366006  13662.524867    110.401377
PC45   7582.260277  25453.546319  -8605.039322    399.548029
PC46 -18069.498321  -1368.084679 -21210.868837 999999.999999
PC59 -32317.078803  27081.735758   -890.460784      0.517160
PC60   7263.850880  41489.177314   1706.234990      0.364728
PE01  12371.009810  21026.247606  16766.461303  -1075.687656
PE02 -12432.576020 -20900.625551 -16866.660712    208.393792
PE03 -15006.551232 -10034.586118  23458.155089   -414.215268
PE04  26007.838815  -6247.403721 -12670.595690   -738.965695
PE05   4959.508037 -20652.980191  20622.652947   -293.149667
PE07 -21838.813880  19116.271497  -5780.598951   -518.876436
PE08 -25989.644584   6681.281445  12484.084502   6025.841957
PE09  21666.157385 -19277.884664   5973.711109   5718.764926
PE11  14563.072133 -10086.768080 -23712.626106   6153.264704
PE12  26887.397917   5161.568868 -11215.343237   5286.354492
PE13 -14924.469976   9765.835516  23633.851459    414.250855
PE14 -26190.575948   2487.810852  -6940.961088  -1378.442755
PE15 -26904.321187  -5079.195163  11273.095154    822.206278
PE18  25349.648481 -14624.966538  -7972.291364  -1507.655759
PE19  12921.427964  11583.115643 -23971.623877    238.871261
PE21   1473.344003  29567.497115   -166.687514   -656.316604
PE24  11209.780583 -20602.922708  18023.392805   -818.485942
PE25  -1352.945041 -29562.756856    345.041827   -529.641615
PE26   6466.791769  19156.462158  21624.788437   1986.436969
PE27 -10718.305511  21280.573838 -17572.269829      0.212160
PE30 -16626.984883   -534.007269 -24495.113553   3068.192865
PE31  16537.912453   -523.656866  24545.696376   -479.636818
PE33  23018.072950  16922.209110   7724.557490   -467.002703
PE36  -5857.194148 -18851.441285 -22054.375105   -186.454701
PG01 -22200.601346 -14144.694638   4491.053860    729.770160
PG02   8199.855132  19577.870422  16597.217758   -590.723007
PG03 -13343.994180  -8910.536118  21104.421768   -121.660530
PG04 -21206.598010  -3980.501461  15532.095065   -188.954981
PG05   5400.222747  23396.627299 -11302.192551    -37.568347
PG06  -4514.267275  14820.534651  21628.921768      3.589282
PG07 -21183.390913  -2714.568851 -15752.037896    105.395733
PG08 -14844.991557  -8921.302040 -20222.779225    -15.541562
PG09 -25173.452866   5416.636696   6497.822252   -334.905953
PG10  11648.806640 -20100.743463 -12510.505291    -90.989357
PG11 -23782.500138  -9623.026132  -6545.673606     14.612122
PG12  10999.953428  13210.361282  20037.732770    -20.625146
PG13   4743.580062  14376.096533 -21960.504303    113.500256
PG14 -13181.298890  18898.557020 -13209.171641     98.947200
PG15  16315.600429   8073.366145 -19805.052824   -159.848669
PG16   -521.936998 -24699.856979  -9340.945362   -301.403430
PG17 -20206.514497  13966.883806  10525.127584    417.651391
PG18  18998.534831   -845.723332 -18572.039558    351.327885
PG19 -13893.303853  15229.186870  16406.139436    -20.008449
PG20  15656.061908  -2498.088802 -21288.734638    523.716195
PG21 -20980.172427 -16390.785283  -2426.586008    106.903752
PG22 -11247.532027 -17869.243857  16415.503819   -650.008723
PG23  14947.984791  -9922.733176 -19589.724392    115.988078
PG24  21461.584683  15975.905832  -1340.278450      0.450287
PG25  15330.671711  -1974.888482  21305.594280    108.236907
PG26   3849.873275 -26088.433102   1466.992837     64.789510
PG27  -2106.300970 -15073.832382 -21899.159167   -102.958659
PG28 -12435.820410  20880.922178 -10377.362626    594.933329
PG29  25623.058813  -3952.294887   5824.106057   -320.528976
PG30 -12879.360461   9490.494934 -21172.405247   -405.335829
PG31   2558.949251 -16606.329393  20378.452765   -108.450465
PG32  18140.040341 -15783.212372  11195.803302     21.828211
PJ01 -34153.702493  24607.679853   7615.344812   -359.596577
PJ02 -19855.437173  27171.867249 -20933.402822      4.310348
PJ03 -30452.250059  24206.397861  21305.906215     -2.464586
PJ07      0.000000      0.000000      0.000000 999999.999999
PR01  14293.582374  -1418.697140 -21077.809503     77.089651
PR02  18038.948713 -17263.108228  -5025.038246    472.710637
PR03   9634.044832 -20228.038924  12191.681190     33.255096
PR04  -3868.712026 -11635.726653  22397.253751     80.013099
PR05 -15339.655996   3364.746408  20122.134994     69.020209
PR07  -9316.392920  20122.203790 -12606.469762    -42.564606
PR08   3950.975720  11677.256992 -22275.656651    -58.222802
PR09  -7676.200240  10426.636343 -21953.147092    -14.737324
PR11  11239.947276  22127.437888   5879.384590      1.790715
PR12  13233.939200   8417.457531  20144.916108    216.494821
PR13   7667.655324  -9842.700673  22226.641200    -52.676064
PR14  -2600.916343 -22867.976170  11016.659037     62.546807
PR15 -11066.333343 -22110.752671  -6249.103042    104.657063
PR16 -13393.041021  -6939.855498 -20558.073918    -13.133043
PR17   2222.639161 -10308.130274 -23217.367594    411.934289
PR18 -15429.535369 -10853.649472 -17186.488186     71.410400
PR19 -24467.195784  -6652.726155  -2804.133413   -137.644170
PR20 -19607.919096   2962.428176  16083.157273    -46.241764
PR21   -884.782563  10477.290494  23241.432698   -197.884718
PR22  16192.275486  10723.362696  16464.073602   -105.096738
PR24  19101.157667  -3911.250149 -16433.267068     36.817195
EOF
